CCSDS_OMM_VERS = 2.0
CREATION_DATE  = 
ORIGINATOR     = 

OBJECT_NAME    = GLOBAL-34
OBJECT_ID      = 2026-043A
CENTER_NAME    = EARTH
REF_FRAME      = TEME
TIME_SYSTEM    = UTC
MEAN_ELEMENT_THEORY = SGP/SGP4

EPOCH          = 2026-03-08T04:05:17.722464
MEAN_MOTION    = 15.31446211
ECCENTRICITY   = .0006973
INCLINATION    = 42.0212
RA_OF_ASC_NODE = 84.2683
ARG_OF_PERICENTER = 282.5860
MEAN_ANOMALY   = 77.4197

EPHEMERIS_TYPE = 0
CLASSIFICATION_TYPE = U
NORAD_CAT_ID   = 68098
ELEMENT_SET_NO = 999
REV_AT_EPOCH   = 33
BSTAR          = .53642E-3
MEAN_MOTION_DOT = .16438E-3
MEAN_MOTION_DDOT = 0

CCSDS_OMM_VERS = 2.0
CREATION_DATE  = 
ORIGINATOR     = 

OBJECT_NAME    = ELECTRON R/B
OBJECT_ID      = 2026-043B
CENTER_NAME    = EARTH
REF_FRAME      = TEME
TIME_SYSTEM    = UTC
MEAN_ELEMENT_THEORY = SGP/SGP4

EPOCH          = 2026-03-08T03:53:29.565600
MEAN_MOTION    = 15.88784905
ECCENTRICITY   = .0193093
INCLINATION    = 42.0155
RA_OF_ASC_NODE = 83.2587
ARG_OF_PERICENTER = 281.9943
MEAN_ANOMALY   = 75.9332

EPHEMERIS_TYPE = 0
CLASSIFICATION_TYPE = U
NORAD_CAT_ID   = 68099
ELEMENT_SET_NO = 999
REV_AT_EPOCH   = 34
BSTAR          = .13938E-2
MEAN_MOTION_DOT = .2446852E-1
MEAN_MOTION_DDOT = .74513E-5

CCSDS_OMM_VERS = 2.0
CREATION_DATE  = 
ORIGINATOR     = 

OBJECT_NAME    = ELECTRON KICK STAGE R/B
OBJECT_ID      = 2026-043C
CENTER_NAME    = EARTH
REF_FRAME      = TEME
TIME_SYSTEM    = UTC
MEAN_ELEMENT_THEORY = SGP/SGP4

EPOCH          = 2026-03-07T18:52:19.680960
MEAN_MOTION    = 15.86818339
ECCENTRICITY   = .01822566
INCLINATION    = 42.1234
RA_OF_ASC_NODE = 85.7586
ARG_OF_PERICENTER = 34.2922
MEAN_ANOMALY   = 326.9551

EPHEMERIS_TYPE = 0
CLASSIFICATION_TYPE = U
NORAD_CAT_ID   = 68100
ELEMENT_SET_NO = 999
REV_AT_EPOCH   = 27
BSTAR          = .21350601E-2
MEAN_MOTION_DOT = .2532596E-1
MEAN_MOTION_DDOT = .7961004E-5

