GLOBAL-34               
1 68098U 26043A   26067.17034401  .00016438  00000+0  53642-3 0  9991
2 68098  42.0212  84.2683 0006973 282.5860  77.4197 15.31446211   330
ELECTRON R/B            
1 68099U 26043B   26067.16214775  .02446852  74513-5  13938-2 0  9993
2 68099  42.0155  83.2587 0193093 281.9943  75.9332 15.88784905   346
ELECTRON KICK STAGE R/B 
1 68100U 26043C   26066.78633890  .02532596  79610-5  21351-2 0  9998
2 68100  42.1234  85.7586 0182256  34.2922 326.9551 15.86818339   270
